[{"OBJECT_NAME":"ONEWEB-0138","OBJECT_ID":"2020-100AC","EPOCH":"2025-11-13T05:23:28.831200","MEAN_MOTION":13.1244086,"ECCENTRICITY":0.00019037,"INCLINATION":87.897,"RA_OF_ASC_NODE":33.5627,"ARG_OF_PERICENTER":98.8017,"MEAN_ANOMALY":261.3328,"EPHEMERIS_TYPE":0,"CLASSIFICATION_TYPE":"U","NORAD_CAT_ID":47284,"ELEMENT_SET_NO":999,"REV_AT_EPOCH":23632,"BSTAR":0.00013780315,"MEAN_MOTION_DOT":6.2e-7,"MEAN_MOTION_DDOT":0},{"OBJECT_NAME":"ONEWEB-0139","OBJECT_ID":"2020-100AD","EPOCH":"2025-11-13T06:19:45.551424","MEAN_MOTION":13.12444002,"ECCENTRICITY":0.00017627,"INCLINATION":87.8971,"RA_OF_ASC_NODE":33.5449,"ARG_OF_PERICENTER":101.3717,"MEAN_ANOMALY":258.7609,"EPHEMERIS_TYPE":0,"CLASSIFICATION_TYPE":"U","NORAD_CAT_ID":47285,"ELEMENT_SET_NO":999,"REV_AT_EPOCH":23640,"BSTAR":6.7071607e-5,"MEAN_MOTION_DOT":3.7e-7,"MEAN_MOTION_DDOT":0},{"OBJECT_NAME":"ONEWEB-0140","OBJECT_ID":"2020-100AE","EPOCH":"2025-11-13T05:14:08.444256","MEAN_MOTION":13.1244141,"ECCENTRICITY":0.00018783,"INCLINATION":87.8971,"RA_OF_ASC_NODE":33.5399,"ARG_OF_PERICENTER":100.0996,"MEAN_ANOMALY":260.0345,"EPHEMERIS_TYPE":0,"CLASSIFICATION_TYPE":"U","NORAD_CAT_ID":47286,"ELEMENT_SET_NO":999,"REV_AT_EPOCH":23636,"BSTAR":0.00079725149,"MEAN_MOTION_DOT":3.0e-6,"MEAN_MOTION_DDOT":0},{"OBJECT_NAME":"ONEWEB-0141","OBJECT_ID":"2020-100AF","EPOCH":"2025-11-13T04:29:34.296864","MEAN_MOTION":13.12445198,"ECCENTRICITY":0.00014909,"INCLINATION":87.8966,"RA_OF_ASC_NODE":33.5573,"ARG_OF_PERICENTER":94.3075,"MEAN_ANOMALY":265.8224,"EPHEMERIS_TYPE":0,"CLASSIFICATION_TYPE":"U","NORAD_CAT_ID":47287,"ELEMENT_SET_NO":999,"REV_AT_EPOCH":23634,"BSTAR":0.00014952945,"MEAN_MOTION_DOT":6.7e-7,"MEAN_MOTION_DDOT":0},{"OBJECT_NAME":"ONEWEB-0142","OBJECT_ID":"2020-100AG","EPOCH":"2025-11-13T06:03:23.386464","MEAN_MOTION":13.12443158,"ECCENTRICITY":0.00016122,"INCLINATION":87.8971,"RA_OF_ASC_NODE":33.5659,"ARG_OF_PERICENTER":88.2235,"MEAN_ANOMALY":271.9078,"EPHEMERIS_TYPE":0,"CLASSIFICATION_TYPE":"U","NORAD_CAT_ID":47288,"ELEMENT_SET_NO":999,"REV_AT_EPOCH":23634,"BSTAR":-0.00083101641,"MEAN_MOTION_DOT":-2.86e-6,"MEAN_MOTION_DDOT":0},{"OBJECT_NAME":"ONEWEB-0143","OBJECT_ID":"2020-100AH","EPOCH":"2025-11-13T06:17:12.498144","MEAN_MOTION":13.12443685,"ECCENTRICITY":0.00017399,"INCLINATION":87.8972,"RA_OF_ASC_NODE":33.5599,"ARG_OF_PERICENTER":102.0616,"MEAN_ANOMALY":258.0708,"EPHEMERIS_TYPE":0,"CLASSIFICATION_TYPE":"U","NORAD_CAT_ID":47289,"ELEMENT_SET_NO":999,"REV_AT_EPOCH":23632,"BSTAR":-7.4100349e-5,"MEAN_MOTION_DOT":-1.4e-7,"MEAN_MOTION_DDOT":0},{"OBJECT_NAME":"ONEWEB-0144","OBJECT_ID":"2020-100AJ","EPOCH":"2025-11-13T05:37:30.100224","MEAN_MOTION":13.12442253,"ECCENTRICITY":0.000196,"INCLINATION":87.8963,"RA_OF_ASC_NODE":33.5353,"ARG_OF_PERICENTER":91.9824,"MEAN_ANOMALY":268.1529,"EPHEMERIS_TYPE":0,"CLASSIFICATION_TYPE":"U","NORAD_CAT_ID":47290,"ELEMENT_SET_NO":999,"REV_AT_EPOCH":23624,"BSTAR":-0.00073395768,"MEAN_MOTION_DOT":-2.51e-6,"MEAN_MOTION_DDOT":0},{"OBJECT_NAME":"ONEWEB-0145","OBJECT_ID":"2020-100AK","EPOCH":"2025-11-13T04:55:27.622848","MEAN_MOTION":13.12442665,"ECCENTRICITY":0.00019048,"INCLINATION":87.8971,"RA_OF_ASC_NODE":33.5773,"ARG_OF_PERICENTER":100.8536,"MEAN_ANOMALY":259.2807,"EPHEMERIS_TYPE":0,"CLASSIFICATION_TYPE":"U","NORAD_CAT_ID":47291,"ELEMENT_SET_NO":999,"REV_AT_EPOCH":23643,"BSTAR":0.0011407228,"MEAN_MOTION_DOT":4.23e-6,"MEAN_MOTION_DDOT":0},{"OBJECT_NAME":"ONEWEB-0146","OBJECT_ID":"2020-100AL","EPOCH":"2025-11-13T04:50:47.411232","MEAN_MOTION":13.12442215,"ECCENTRICITY":0.00017704,"INCLINATION":87.8972,"RA_OF_ASC_NODE":33.5653,"ARG_OF_PERICENTER":112.0295,"MEAN_ANOMALY":248.1022,"EPHEMERIS_TYPE":0,"CLASSIFICATION_TYPE":"U","NORAD_CAT_ID":47292,"ELEMENT_SET_NO":999,"REV_AT_EPOCH":23634,"BSTAR":0.00094435287,"MEAN_MOTION_DOT":3.52e-6,"MEAN_MOTION_DDOT":0},{"OBJECT_NAME":"ONEWEB-0147","OBJECT_ID":"2020-100AM","EPOCH":"2025-11-13T05:51:30.135456","MEAN_MOTION":13.1244468,"ECCENTRICITY":0.00020387,"INCLINATION":87.8975,"RA_OF_ASC_NODE":33.535,"ARG_OF_PERICENTER":99.7279,"MEAN_ANOMALY":260.408,"EPHEMERIS_TYPE":0,"CLASSIFICATION_TYPE":"U","NORAD_CAT_ID":47293,"ELEMENT_SET_NO":999,"REV_AT_EPOCH":23624,"BSTAR":-0.0009487396,"MEAN_MOTION_DOT":-3.29e-6,"MEAN_MOTION_DDOT":0},{"OBJECT_NAME":"ONEWEB-0115","OBJECT_ID":"2021-025A","EPOCH":"2025-11-13T05:05:37.234464","MEAN_MOTION":13.13469818,"ECCENTRICITY":0.00017924,"INCLINATION":87.9021,"RA_OF_ASC_NODE":3.1413,"ARG_OF_PERICENTER":98.6359,"MEAN_ANOMALY":261.4974,"EPHEMERIS_TYPE":0,"CLASSIFICATION_TYPE":"U","NORAD_CAT_ID":48042,"ELEMENT_SET_NO":999,"REV_AT_EPOCH":22524,"BSTAR":0.00057233187,"MEAN_MOTION_DOT":2.22e-6,"MEAN_MOTION_DDOT":0},{"OBJECT_NAME":"ONEWEB-0152","OBJECT_ID":"2021-025B","EPOCH":"2025-11-13T03:35:24.450720","MEAN_MOTION":13.13467734,"ECCENTRICITY":0.00018077,"INCLINATION":87.9013,"RA_OF_ASC_NODE":3.1635,"ARG_OF_PERICENTER":101.3241,"MEAN_ANOMALY":258.8091,"EPHEMERIS_TYPE":0,"CLASSIFICATION_TYPE":"U","NORAD_CAT_ID":48043,"ELEMENT_SET_NO":999,"REV_AT_EPOCH":22519,"BSTAR":-0.00062149287,"MEAN_MOTION_DOT":-2.14e-6,"MEAN_MOTION_DDOT":0},{"OBJECT_NAME":"ONEWEB-0153","OBJECT_ID":"2021-025C","EPOCH":"2025-11-13T04:53:25.554336","MEAN_MOTION":13.13468935,"ECCENTRICITY":0.00017665,"INCLINATION":87.9015,"RA_OF_ASC_NODE":3.1563,"ARG_OF_PERICENTER":95.5767,"MEAN_ANOMALY":264.5564,"EPHEMERIS_TYPE":0,"CLASSIFICATION_TYPE":"U","NORAD_CAT_ID":48044,"ELEMENT_SET_NO":999,"REV_AT_EPOCH":22519,"BSTAR":0.0010836349,"MEAN_MOTION_DOT":4.08e-6,"MEAN_MOTION_DDOT":0},{"OBJECT_NAME":"ONEWEB-0154","OBJECT_ID":"2021-025D","EPOCH":"2025-11-13T04:48:33.590592","MEAN_MOTION":13.13469727,"ECCENTRICITY":0.00018847,"INCLINATION":87.9019,"RA_OF_ASC_NODE":3.1536,"ARG_OF_PERICENTER":98.1961,"MEAN_ANOMALY":261.9382,"EPHEMERIS_TYPE":0,"CLASSIFICATION_TYPE":"U","NORAD_CAT_ID":48045,"ELEMENT_SET_NO":999,"REV_AT_EPOCH":22515,"BSTAR":0.0010664057,"MEAN_MOTION_DOT":4.02e-6,"MEAN_MOTION_DDOT":0},{"OBJECT_NAME":"ONEWEB-0116","OBJECT_ID":"2021-025E","EPOCH":"2025-11-13T03:54:55.264896","MEAN_MOTION":13.1347011,"ECCENTRICITY":0.00018406,"INCLINATION":87.9023,"RA_OF_ASC_NODE":3.1451,"ARG_OF_PERICENTER":102.0528,"MEAN_ANOMALY":258.0808,"EPHEMERIS_TYPE":0,"CLASSIFICATION_TYPE":"U","NORAD_CAT_ID":48046,"ELEMENT_SET_NO":999,"REV_AT_EPOCH":22529,"BSTAR":-0.00065578703,"MEAN_MOTION_DOT":-2.27e-6,"MEAN_MOTION_DDOT":0},{"OBJECT_NAME":"ONEWEB-0150","OBJECT_ID":"2021-025F","EPOCH":"2025-11-13T03:20:47.139072","MEAN_MOTION":13.13468055,"ECCENTRICITY":0.00016207,"INCLINATION":87.9023,"RA_OF_ASC_NODE":3.1444,"ARG_OF_PERICENTER":95.4062,"MEAN_ANOMALY":264.7252,"EPHEMERIS_TYPE":0,"CLASSIFICATION_TYPE":"U","NORAD_CAT_ID":48047,"ELEMENT_SET_NO":999,"REV_AT_EPOCH":22518,"BSTAR":0.00026867438,"MEAN_MOTION_DOT":1.11e-6,"MEAN_MOTION_DDOT":0}]
