ONEWEB-0138             
1 47284U 20100AC  25317.22463925  .00000062  00000+0  13780-3 0  9998
2 47284  87.8970  33.5627 0001903  98.8017 261.3328 13.12440860236328
ONEWEB-0139             
1 47285U 20100AD  25317.26372166  .00000037  00000+0  67072-4 0  9995
2 47285  87.8971  33.5449 0001762 101.3717 258.7609 13.12444002236405
ONEWEB-0140             
1 47286U 20100AE  25317.21815329  .00000300  00000+0  79725-3 0  9994
2 47286  87.8971  33.5399 0001878 100.0996 260.0345 13.12441410236361
ONEWEB-0141             
1 47287U 20100AF  25317.18720251  .00000067  00000+0  14953-3 0  9992
2 47287  87.8966  33.5573 0001490  94.3075 265.8224 13.12445198236347
ONEWEB-0142             
1 47288U 20100AG  25317.25235401 -.00000286  00000+0 -83102-3 0  9996
2 47288  87.8971  33.5659 0001612  88.2235 271.9078 13.12443158236344
ONEWEB-0143             
1 47289U 20100AH  25317.26195021 -.00000014  00000+0 -74100-4 0  9999
2 47289  87.8972  33.5599 0001739 102.0616 258.0708 13.12443685236326
ONEWEB-0144             
1 47290U 20100AJ  25317.23437616 -.00000251  00000+0 -73396-3 0  9995
2 47290  87.8963  33.5353 0001960  91.9824 268.1529 13.12442253236243
ONEWEB-0145             
1 47291U 20100AK  25317.20518082  .00000423  00000+0  11407-2 0  9993
2 47291  87.8971  33.5773 0001904 100.8536 259.2807 13.12442665236435
ONEWEB-0146             
1 47292U 20100AL  25317.20193763  .00000352  00000+0  94435-3 0  9993
2 47292  87.8972  33.5653 0001770 112.0295 248.1022 13.12442215236349
ONEWEB-0147             
1 47293U 20100AM  25317.24409879 -.00000329  00000+0 -94874-3 0  9999
2 47293  87.8975  33.5350 0002038  99.7279 260.4080 13.12444680236246
ONEWEB-0115             
1 48042U 21025A   25317.21223651  .00000222  00000+0  57233-3 0  9996
2 48042  87.9021   3.1413 0001792  98.6359 261.4974 13.13469818225240
ONEWEB-0152             
1 48043U 21025B   25317.14958855 -.00000214  00000+0 -62149-3 0  9995
2 48043  87.9013   3.1635 0001807 101.3241 258.8091 13.13467734225196
ONEWEB-0153             
1 48044U 21025C   25317.20376799  .00000408  00000+0  10836-2 0  9992
2 48044  87.9015   3.1563 0001766  95.5767 264.5564 13.13468935225193
ONEWEB-0154             
1 48045U 21025D   25317.20038878  .00000402  00000+0  10664-2 0  9999
2 48045  87.9019   3.1536 0001884  98.1961 261.9382 13.13469727225159
ONEWEB-0116             
1 48046U 21025E   25317.16313964 -.00000227  00000+0 -65579-3 0  9990
2 48046  87.9023   3.1451 0001840 102.0528 258.0808 13.13470110225290
ONEWEB-0150             
1 48047U 21025F   25317.13943448  .00000111  00000+0  26867-3 0  9991
2 48047  87.9023   3.1444 0001620  95.4062 264.7252 13.13468055225187
